STARLINK-1735           
1 46565U 20070AK  23270.14869998  .00003006  00000+0  22075-3 0  9990
2 46565  53.0534 212.3715 0001521 101.6860 258.4300 15.06380754164653
STARLINK-1740           
1 46566U 20070AL  23270.13395390  .00007516  00000+0  52300-3 0  9994
2 46566  53.0542 212.4367 0001224  86.1118 274.0011 15.06393246164631
STARLINK-1741           
1 46567U 20070AM  23269.83170703 -.00001821  00000+0 -10347-3 0  9999
2 46567  53.0539 213.7920 0001755 114.3723 245.7449 15.06377383164917
STARLINK-1747           
1 46569U 20070AP  23270.24452568  .00039113  00000+0  26322-2 0  9992
2 46569  53.0534 211.9393 0001174  81.2735 278.8386 15.06371278164675
STARLINK-1748           
1 46570U 20070AQ  23270.12009234  .00023645  00000+0  89563-3 0  9999
2 46570  53.0295 176.1955 0001748  34.3099 325.8011 15.26813395165476
STARLINK-1531           
1 46572U 20070AS  23270.28227387  .00026486  00000+0  17915-2 0  9996
2 46572  53.0525 231.7557 0001593 104.0051 256.1115 15.06376147164715
STARLINK-1660           
1 46574U 20070AU  23270.17955359  .00032109  00000+0  21668-2 0  9992
2 46574  53.0519 217.2315 0001110  64.1382 295.9721 15.06363441164895
STARLINK-1675           
1 46575U 20070AV  23269.77089431  .00000789  00000+0  71907-4 0  9998
2 46575  53.0536 194.0660 0001384  69.9121 290.2017 15.06383657165176
STARLINK-1677           
1 46576U 20070AW  23269.84045906  .00000226  00000+0  34079-4 0  9991
2 46576  53.0536 218.7551 0001503  98.2315 261.8844 15.06378782164841
STARLINK-1682           
1 46577U 20070AX  23270.26803998  .00022105  00000+0  14990-2 0  9991
2 46577  53.0541 216.8331 0001644  97.8749 262.2427 15.06381479164901
STARLINK-1683           
1 46578U 20070AY  23270.05008889 -.00000051  00000+0  15479-4 0  9997
2 46578  53.0539 202.8571 0001293  99.3542 260.7594 15.06387317164789
STARLINK-1705           
1 46579U 20070AZ  23269.85521029  .00008544  00000+0  59256-3 0  9994
2 46579  53.0531 218.6876 0001550  89.6269 270.4898 15.06352525164822
STARLINK-1708           
1 46580U 20070BA  23270.16482691  .00003388  00000+0  24639-3 0  9991
2 46580  53.0527 217.2976 0001436 102.3948 257.7202 15.06379681164903
STARLINK-1712           
1 46581U 20070BB  23270.19660434  .00034640  00000+0  23352-2 0  9993
2 46581  53.0534 212.1539 0002112  94.0256 266.0975 15.06364870164962
STARLINK-1728           
1 46582U 20070BC  23270.24822459  .00006240  00000+0  43765-3 0  9993
2 46582  53.0541 211.9198 0001567 104.7158 255.4004 15.06379317164970
STARLINK-1729           
1 46583U 20070BD  23270.29796956  .00024643  00000+0  16683-2 0  9996
2 46583  53.0523 231.7016 0001596  58.6264 301.4881 15.06381640164716
STARLINK-1732           
1 46584U 20070BE  23270.11918896  .00000802  00000+0  72760-4 0  9998
2 46584  53.0530 212.5016 0001301  88.8140 271.2998 15.06390372164641
STARLINK-1736           
1 46585U 20070BF  23270.13669438  .00021546  00000+0  14616-2 0  9998
2 46585  53.0537 212.4121 0001244  77.5378 282.5750 15.06382893164650
STARLINK-1737           
1 46586U 20070BG  23270.12656712  .00019711  00000+0  13392-2 0  9990
2 46586  53.0533 212.4684 0001401 102.7403 257.3743 15.06379749164632
STARLINK-1746           
1 46588U 20070BJ  23270.24083267  .00034066  00000+0  22966-2 0  9991
2 46588  53.0523 211.9564 0001000  89.5062 270.6041 15.06371666164989
STARLINK-1749           
1 46589U 20070BK  23270.16711014 -.00002838  00000+0 -17180-3 0  9998
2 46589  53.0526 212.2826 0001503  99.6202 260.4957 15.06383163164960
STARLINK-1755           
1 46591U 20070BM  23270.22242313  .00017163  00000+0  11687-2 0  9999
2 46591  53.0536 212.0380 0001462  95.7515 264.3641 15.06387273164975
STARLINK-1715           
1 46671U 20073B   23270.38368550  .00015089  00000+0  10303-2 0  9999
2 46671  53.0548 301.5577 0001385  90.3501 269.7646 15.06377495162741
STARLINK-1716           
1 46672U 20073C   23270.40071687  .00024224  00000+0  16400-2 0  9990
2 46672  53.0523 296.2413 0001504  80.8817 279.2342 15.06390429162821
STARLINK-1717           
1 46673U 20073D   23270.38274811  .00014235  00000+0  97319-3 0  9992
2 46673  53.0535 311.4455 0001346  89.8217 270.2926 15.06378354162606
STARLINK-1718           
1 46674U 20073E   23270.36017233  .00024245  00000+0  16414-2 0  9992
2 46674  53.0532 296.4234 0001431  88.4138 271.7014 15.06390200162814
STARLINK-1720           
1 46675U 20073F   23270.35646106 -.00010941  00000+0 -71686-3 0  9992
2 46675  53.0542 296.4372 0001487  90.0773 270.0386 15.06393256162812
STARLINK-1766           
1 46677U 20073H   23270.35277760  .00003470  00000+0  25171-3 0  9995
2 46677  53.0531 296.4553 0001361  92.3731 267.7414 15.06402336162818
STARLINK-1773           
1 46679U 20073K   23270.29198346  .00011662  00000+0  80038-3 0  9997
2 46679  53.0532 276.7264 0001795  92.9042 267.2152 15.06407373163094
STARLINK-1774           
1 46680U 20073L   23270.36061638  .00018716  00000+0  12731-2 0  9991
2 46680  53.0532 311.4222 0001480  89.2822 270.8337 15.06368057162609
STARLINK-1775           
1 46681U 20073M   23270.39749678  .00001255  00000+0  10314-3 0  9998
2 46681  53.0550 311.2535 0001439 100.5899 259.5252 15.06387051162605
STARLINK-1776           
1 46682U 20073N   23270.42330229 -.00000746  00000+0 -31185-4 0  9997
2 46682  53.0541 311.1403 0001396  92.8450 267.2699 15.06388375162721
STARLINK-1780           
1 46684U 20073Q   23270.34542529  .00006485  00000+0  45389-3 0  9992
2 46684  53.0531 296.4883 0001548  81.7828 278.3336 15.06398219162813
STARLINK-1781           
1 46685U 20073R   23270.40021635  .00009692  00000+0  66903-3 0  9998
2 46685  53.0554 311.2268 0001440  80.0593 280.0559 15.06378179162601
STARLINK-1783           
1 46686U 20073S   23270.37811221  .00001556  00000+0  12336-3 0  9995
2 46686  53.0532 311.2930 0001789  81.9989 278.1203 15.06386309162607
STARLINK-1784           
1 46687U 20073T   23270.30303555  .00000090  00000+0  24970-4 0  9995
2 46687  53.0529 276.6751 0001553 116.9026 243.2122 15.06398065163087
STARLINK-1788           
1 46689U 20073V   23270.39381484  .00005372  00000+0  37937-3 0  9997
2 46689  53.0537 311.2709 0001690  87.2026 272.9156 15.06388768162601
STARLINK-1789           
1 46690U 20073W   23270.06252485  .00001589  00000+0  12557-3 0  9998
2 46690  53.0518 287.7618 0001753  71.2113 288.9066 15.06397199162906
STARLINK-1790           
1 46691U 20073X   23270.39333009  .00018757  00000+0  12751-2 0  9997
2 46691  53.0533 296.2728 0001937 153.7868 206.3219 15.06390683162813
STARLINK-1791           
1 46692U 20073Y   23270.37905010  .00019281  00000+0  13105-2 0  9990
2 46692  53.0526 311.3389 0001487  87.6731 272.4429 15.06378759162606
STARLINK-1792           
1 46693U 20073Z   23270.06528644 -.00000703  00000+0 -28273-4 0  9996
2 46693  53.0544 297.7440 0001530  92.5418 267.5746 15.06400656162753
STARLINK-1793           
1 46694U 20073AA  23270.28828018  .00027115  00000+0  18317-2 0  9999
2 46694  53.0526 276.7443 0001598  94.5303 265.5869 15.06410701163097
STARLINK-1795           
1 46696U 20073AC  23270.10767804  .00001778  00000+0  13819-3 0  9997
2 46696  53.0534 277.5570 0001891 107.0043 253.1154 15.06407936163057
STARLINK-1797           
1 46698U 20073AE  23270.36291555  .00004816  00000+0  34210-3 0  9996
2 46698  53.0526 296.3993 0001400  85.1991 274.9158 15.06387826162792
STARLINK-1799           
1 46699U 20073AF  23270.36753022  .00022729  00000+0  15409-2 0  9990
2 46699  53.0532 296.3910 0001364  90.1274 269.9872 15.06374932162777
STARLINK-1800           
1 46700U 20073AG  23269.97360727  .00000184  00000+0  31277-4 0  9998
2 46700  53.0541 313.1576 0001589 107.6977 252.4186 15.06377961162544
STARLINK-1801           
1 46701U 20073AH  23270.33804613  .00018621  00000+0  12664-2 0  9990
2 46701  53.0526 296.5220 0001437  93.8912 266.2241 15.06378251162813
STARLINK-1802           
1 46702U 20073AJ  23270.28459826  .00014192  00000+0  97004-3 0  9998
2 46702  53.0532 276.7590 0001424  97.0584 263.0567 15.06388535163091
STARLINK-1803           
1 46703U 20073AK  23270.38227136  .00022852  00000+0  15494-2 0  9991
2 46703  53.0536 296.3202 0001434  84.9545 275.1608 15.06368500162816
STARLINK-1804           
1 46704U 20073AL  23270.29565423  .00023618  00000+0  16003-2 0  9994
2 46704  53.0525 276.7124 0001383  91.7008 268.4140 15.06372717163095
STARLINK-1805           
1 46705U 20073AM  23270.37536384  .00017855  00000+0  12153-2 0  9996
2 46705  53.0528 311.3549 0001380  90.0023 270.1124 15.06377246162602
STARLINK-1807           
1 46706U 20073AN  23270.34910071  .00022611  00000+0  15330-2 0  9999
2 46706  53.0524 296.4726 0001349  88.0068 272.1075 15.06376153162816
STARLINK-1808           
1 46707U 20073AP  23270.00814943  .00000621  00000+0  60605-4 0  9998
2 46707  53.0521 278.0011 0001468  92.0838 268.0319 15.06396238163057
STARLINK-1810           
1 46709U 20073AR  23269.95148825 -.00009640  00000+0 -62926-3 0  9990
2 46709  53.0556 313.3855 0001227  70.3181 289.7940 15.06392665162531
STARLINK-1811           
1 46710U 20073AS  23270.34512365  .00007973  00000+0  52685-4 0  9998
2 46710  53.0468 287.6779 0001640  91.9236 268.1971 15.76720062162934
STARLINK-1813           
1 46711U 20073AT  23270.07635377  .00003529  00000+0  25571-3 0  9994
2 46711  53.0538 297.6950 0001550  99.1647 260.9517 15.06395045162759
STARLINK-1814           
1 46712U 20073AU  23270.38597673  .00021954  00000+0  14894-2 0  9992
2 46712  53.0531 296.4313 0001166  74.6761 285.4357 15.06368631162813
STARLINK-1815           
1 46713U 20073AV  23270.38501505  .00022704  00000+0  15393-2 0  9991
2 46713  53.0535 296.3003 0001512  79.9478 280.1682 15.06372603162818
STARLINK-1816           
1 46714U 20073AW  23270.10953177  .00004292  00000+0  30697-3 0  9995
2 46714  53.0538 297.5472 0001479 102.8424 257.2730 15.06387125162773
